{
  "links" : {
    "next" : "https://api.nasa.gov/neo/rest/v1/feed?start_date=2016-05-23&end_date=2016-05-23&detailed=true&api_key=t0TVs3DtDT2H8Oy2Zy8m2eVrNsAVKAexjcZXUckd",
    "prev" : "https://api.nasa.gov/neo/rest/v1/feed?start_date=2016-05-21&end_date=2016-05-21&detailed=true&api_key=t0TVs3DtDT2H8Oy2Zy8m2eVrNsAVKAexjcZXUckd",
    "self" : "https://api.nasa.gov/neo/rest/v1/feed?start_date=2016-05-22&end_date=2016-05-22&detailed=true&api_key=t0TVs3DtDT2H8Oy2Zy8m2eVrNsAVKAexjcZXUckd"
  },
  "element_count" : 6,
  "near_earth_objects" : {
    "2016-05-22" : [ {
      "links" : {
        "self" : "https://api.nasa.gov/neo/rest/v1/neo/2154555?api_key=t0TVs3DtDT2H8Oy2Zy8m2eVrNsAVKAexjcZXUckd"
      },
      "neo_reference_id" : "2154555",
      "name" : "154555 (2003 HA)",
      "nasa_jpl_url" : "http://ssd.jpl.nasa.gov/sbdb.cgi?sstr=2154555",
      "absolute_magnitude_h" : 16.7,
      "estimated_diameter" : {
        "kilometers" : {
          "estimated_diameter_min" : 1.214940408,
          "estimated_diameter_max" : 2.7166893409
        },
        "meters" : {
          "estimated_diameter_min" : 1214.9404079963,
          "estimated_diameter_max" : 2716.6893408911
        },
        "miles" : {
          "estimated_diameter_min" : 0.7549287363,
          "estimated_diameter_max" : 1.6880719724
        },
        "feet" : {
          "estimated_diameter_min" : 3986.0250881707,
          "estimated_diameter_max" : 8913.0230571693
        }
      },
      "is_potentially_hazardous_asteroid" : false,
      "close_approach_data" : [ {
        "close_approach_date" : "2016-05-22",
        "epoch_date_close_approach" : 1463900400000,
        "relative_velocity" : {
          "kilometers_per_second" : "21.2540630982",
          "kilometers_per_hour" : "76514.6271536402",
          "miles_per_hour" : "47543.2137444383"
        },
        "miss_distance" : {
          "astronomical" : "0.3002536241",
          "lunar" : "116.7986602783",
          "kilometers" : "44917304",
          "miles" : "27910318"
        },
        "orbiting_body" : "Earth"
      } ],
      "orbital_data" : {
        "orbit_id" : "133",
        "orbit_determination_date" : "2017-04-15 06:14:38",
        "orbit_uncertainty" : "0",
        "minimum_orbit_intersection" : ".115277",
        "jupiter_tisserand_invariant" : "5.016",
        "epoch_osculation" : "2458000.5",
        "eccentricity" : ".5802140332037762",
        "semi_major_axis" : "1.184252563291688",
        "inclination" : "36.82687223136637",
        "ascending_node_longitude" : "53.51079565951329",
        "orbital_period" : "470.7224668544186",
        "perihelion_distance" : ".4971326072123073",
        "perihelion_argument" : "277.1296415659076",
        "aphelion_distance" : "1.871372519371068",
        "perihelion_time" : "2458052.272978598442",
        "mean_anomaly" : "320.4049655416096",
        "mean_motion" : ".7647818520447591",
        "equinox" : "J2000"
      }
    }, {
      "links" : {
        "self" : "https://api.nasa.gov/neo/rest/v1/neo/2395207?api_key=t0TVs3DtDT2H8Oy2Zy8m2eVrNsAVKAexjcZXUckd"
      },
      "neo_reference_id" : "2395207",
      "name" : "395207 (2010 HQ80)",
      "nasa_jpl_url" : "http://ssd.jpl.nasa.gov/sbdb.cgi?sstr=2395207",
      "absolute_magnitude_h" : 19.7,
      "estimated_diameter" : {
        "kilometers" : {
          "estimated_diameter_min" : 0.3051792326,
          "estimated_diameter_max" : 0.6824015094
        },
        "meters" : {
          "estimated_diameter_min" : 305.1792325939,
          "estimated_diameter_max" : 682.4015094011
        },
        "miles" : {
          "estimated_diameter_min" : 0.1896295249,
          "estimated_diameter_max" : 0.4240245083
        },
        "feet" : {
          "estimated_diameter_min" : 1001.2442334633,
          "estimated_diameter_max" : 2238.8501681036
        }
      },
      "is_potentially_hazardous_asteroid" : true,
      "close_approach_data" : [ {
        "close_approach_date" : "2016-05-22",
        "epoch_date_close_approach" : 1463900400000,
        "relative_velocity" : {
          "kilometers_per_second" : "15.6531610192",
          "kilometers_per_hour" : "56351.3796692698",
          "miles_per_hour" : "35014.5558839415"
        },
        "miss_distance" : {
          "astronomical" : "0.3257596064",
          "lunar" : "126.720489502",
          "kilometers" : "48732944",
          "miles" : "30281248"
        },
        "orbiting_body" : "Earth"
      } ],
      "orbital_data" : {
        "orbit_id" : "63",
        "orbit_determination_date" : "2017-04-06 09:21:57",
        "orbit_uncertainty" : "0",
        "minimum_orbit_intersection" : ".00733852",
        "jupiter_tisserand_invariant" : "4.165",
        "epoch_osculation" : "2458000.5",
        "eccentricity" : ".4894045106706515",
        "semi_major_axis" : "1.5680319360266",
        "inclination" : "27.85237778852461",
        "ascending_node_longitude" : "218.5027505627883",
        "orbital_period" : "717.1843142449407",
        "perihelion_distance" : ".8006300336595473",
        "perihelion_argument" : "66.2847730755486",
        "aphelion_distance" : "2.335433838393652",
        "perihelion_time" : "2458289.815617337874",
        "mean_anomaly" : "214.7742607124797",
        "mean_motion" : ".5019630140391621",
        "equinox" : "J2000"
      }
    }, {
      "links" : {
        "self" : "https://api.nasa.gov/neo/rest/v1/neo/3459812?api_key=t0TVs3DtDT2H8Oy2Zy8m2eVrNsAVKAexjcZXUckd"
      },
      "neo_reference_id" : "3459812",
      "name" : "(2009 JR2)",
      "nasa_jpl_url" : "http://ssd.jpl.nasa.gov/sbdb.cgi?sstr=3459812",
      "absolute_magnitude_h" : 22.8,
      "estimated_diameter" : {
        "kilometers" : {
          "estimated_diameter_min" : 0.0732073989,
          "estimated_diameter_max" : 0.1636967205
        },
        "meters" : {
          "estimated_diameter_min" : 73.2073989347,
          "estimated_diameter_max" : 163.696720474
        },
        "miles" : {
          "estimated_diameter_min" : 0.0454889547,
          "estimated_diameter_max" : 0.1017163949
        },
        "feet" : {
          "estimated_diameter_min" : 240.181762721,
          "estimated_diameter_max" : 537.0627483999
        }
      },
      "is_potentially_hazardous_asteroid" : false,
      "close_approach_data" : [ {
        "close_approach_date" : "2016-05-22",
        "epoch_date_close_approach" : 1463900400000,
        "relative_velocity" : {
          "kilometers_per_second" : "10.902454092",
          "kilometers_per_hour" : "39248.8347311597",
          "miles_per_hour" : "24387.6995583697"
        },
        "miss_distance" : {
          "astronomical" : "0.1293280726",
          "lunar" : "50.3086204529",
          "kilometers" : "19347204",
          "miles" : "12021795"
        },
        "orbiting_body" : "Earth"
      } ],
      "orbital_data" : {
        "orbit_id" : "17",
        "orbit_determination_date" : "2017-04-06 09:00:33",
        "orbit_uncertainty" : "0",
        "minimum_orbit_intersection" : ".129847",
        "jupiter_tisserand_invariant" : "5.070",
        "epoch_osculation" : "2458000.5",
        "eccentricity" : ".1789546935742611",
        "semi_major_axis" : "1.25004107590442",
        "inclination" : "19.7364370285201",
        "ascending_node_longitude" : "52.90235871262598",
        "orbital_period" : "510.4871951270993",
        "perihelion_distance" : "1.026340358210705",
        "perihelion_argument" : "255.2240918237334",
        "aphelion_distance" : "1.473741793598135",
        "perihelion_time" : "2458110.490729708526",
        "mean_anomaly" : "282.4335829124751",
        "mean_motion" : ".7052086779774535",
        "equinox" : "J2000"
      }
    } ]
  }
}